1 24946U 97051C   26114.67465113  .00000198  00000+0  62363-4 0  9995
2 24946  86.3917  12.4148 0009289 130.3768 229.8241 14.35126004497416
